CCSDS_OEM_VERS = 1.0
CREATION_DATE  = 2017-05-11T11:18:52
ORIGINATOR     = GMAT USER

META_START
OBJECT_NAME          = MOPSSat_alt_35785_km_RAAN_90_113
OBJECT_ID            = SatId
CENTER_NAME          = Earth
REF_FRAME            = EME2000
TIME_SYSTEM          = UTC
START_TIME           = 2017-01-01T00:00:00.000
USEABLE_START_TIME   = 2017-01-01T00:00:00.000
USEABLE_STOP_TIME    = 2017-01-02T00:00:00.000
STOP_TIME            = 2017-01-02T00:00:00.000
INTERPOLATION        = Lagrange
INTERPOLATION_DEGREE = 7 
META_STOP


                                                                                   

2017-01-01T03:12:30.000  -3.502224832680209e+04   1.392729254067093e+04   3.058187488489593e+02  -1.787032374735680e+00  -2.916072241070567e+00   1.562358749333764e-02
2017-01-01T03:12:40.000  -3.504010561394595e+04   1.389812663909233e+04   3.059748710167682e+02  -1.784425068184305e+00  -2.917107688510146e+00   1.560084618769294e-02
2017-01-01T03:12:50.000  -3.505793682727453e+04   1.386895039655549e+04   3.061307657648325e+02  -1.781817644213965e+00  -2.918140485196784e+00   1.557810382882193e-02
2017-01-01T03:13:00.000  -3.507574196576806e+04   1.383976383933214e+04   3.062864330839693e+02  -1.779210105654848e+00  -2.919170632512833e+00   1.555536044141763e-02
2017-01-01T03:13:10.000  -3.509352102848581e+04   1.381056699359836e+04   3.064418729656870e+02  -1.776602455325393e+00  -2.920198131846364e+00   1.553261605007060e-02
2017-01-01T03:13:20.000  -3.511127401433234e+04   1.378135988581130e+04   3.065970854001407e+02  -1.773994696066042e+00  -2.921222984577467e+00   1.550987067956333e-02
2017-01-01T03:13:30.000  -3.512900092223200e+04   1.375214254242988e+04   3.067520703776577e+02  -1.771386830714185e+00  -2.922245192088504e+00   1.548712435465170e-02
2017-01-01T03:13:40.000  -3.514670175112754e+04   1.372291498991417e+04   3.069068278887258e+02  -1.768778862104153e+00  -2.923264755763952e+00   1.546437710006492e-02
2017-01-01T03:13:50.000  -3.516437649981320e+04   1.369367725500776e+04   3.070613579225339e+02  -1.766170793092309e+00  -2.924281676980937e+00   1.544162894072436e-02
2017-01-01T03:14:00.000  -3.518202516716069e+04   1.366442936435791e+04   3.072156604689481e+02  -1.763562626523261e+00  -2.925295957122096e+00   1.541887990144889e-02
2017-01-01T03:14:10.000  -3.519964775202977e+04   1.363517134466501e+04   3.073697355177286e+02  -1.760954365243167e+00  -2.926307597570442e+00   1.539613000707090e-02
2017-01-01T03:14:20.000  -3.521724425366593e+04   1.360590322202230e+04   3.075235830620080e+02  -1.758346012040881e+00  -2.927316599732221e+00   1.537337928192298e-02
2017-01-01T03:14:30.000  -3.523481467130224e+04   1.357662502257598e+04   3.076772030948101e+02  -1.755737569706807e+00  -2.928322965014004e+00   1.535062775035125e-02
2017-01-01T03:14:40.000  -3.525235900424993e+04   1.354733677237614e+04   3.078305956098411e+02  -1.753129041019599e+00  -2.929326694827909e+00   1.532787543659933e-02
2017-01-01T03:14:50.000  -3.526987725166735e+04   1.351803849775464e+04   3.079837605994708e+02  -1.750520428779929e+00  -2.930327790578224e+00   1.530512236510292e-02
2017-01-01T03:15:00.000  -3.528736941273248e+04   1.348873022504487e+04   3.081366980562389e+02  -1.747911735785420e+00  -2.931326253671422e+00   1.528236856027112e-02
2017-01-01T03:15:10.000  -3.530483548664134e+04   1.345941198058121e+04   3.082894079728432e+02  -1.745302964830639e+00  -2.932322085516002e+00   1.525961404648638e-02
2017-01-01T03:15:20.000  -3.532227547244345e+04   1.343008379098221e+04   3.084418903407002e+02  -1.742694118732198e+00  -2.933315287513255e+00   1.523685884832345e-02
2017-01-01T03:15:30.000  -3.533968936926475e+04   1.340074568276965e+04   3.085941451518934e+02  -1.740085200294948e+00  -2.934305861069815e+00   1.521410299025455e-02
2017-01-01T03:15:40.000  -3.535707717621775e+04   1.337139768252115e+04   3.087461723983886e+02  -1.737476212325559e+00  -2.935293807592563e+00   1.519134649676769e-02
2017-01-01T03:15:50.000  -3.537443889280020e+04   1.334203981619696e+04   3.088979720755199e+02  -1.734867157572642e+00  -2.936279128511293e+00   1.516858939184455e-02
2017-01-01T03:16:00.000  -3.539177451849510e+04   1.331267210981476e+04   3.090495441784911e+02  -1.732258038786781e+00  -2.937261825255933e+00   1.514583169948396e-02
2017-01-01T03:16:10.000  -3.540908405287406e+04   1.328329458927559e+04   3.092008887032808e+02  -1.729648858705022e+00  -2.938241899262455e+00   1.512307344356677e-02
2017-01-01T03:16:20.000  -3.542636749531797e+04   1.325390728083174e+04   3.093520056441991e+02  -1.727039620092548e+00  -2.939219351956898e+00   1.510031464821919e-02
2017-01-01T03:16:30.000  -3.544362484524790e+04   1.322451021070075e+04   3.095028949959077e+02  -1.724430325708292e+00  -2.940194184768581e+00   1.507755533751293e-02
2017-01-01T03:16:40.000  -3.546085610207183e+04   1.319510340515437e+04   3.096535567529527e+02  -1.721820978312872e+00  -2.941166399127024e+00   1.505479553553443e-02
2017-01-01T03:16:50.000  -3.547806126520668e+04   1.316568689048456e+04   3.098039909099579e+02  -1.719211580665517e+00  -2.942135996463280e+00   1.503203526635801e-02
2017-01-01T03:17:00.000  -3.549524033408643e+04   1.313626069298650e+04   3.099541974616956e+02  -1.716602135522610e+00  -2.943102978210324e+00   1.500927455403317e-02
2017-01-01T03:17:10.000  -3.551239330818268e+04   1.310682483892337e+04   3.101041764032672e+02  -1.713992645634561e+00  -2.944067345804185e+00   1.498651342255734e-02
2017-01-01T03:17:20.000  -3.552952018701574e+04   1.307737935451035e+04   3.102539277301987e+02  -1.711383113744351e+00  -2.945029100684647e+00   1.496375189586315e-02
2017-01-01T03:17:30.000  -3.554662097017287e+04   1.304792426587930e+04   3.104034514386017e+02  -1.708773542584462e+00  -2.945988244296168e+00   1.494098999779164e-02
2017-01-01T03:17:40.000  -3.556369565725710e+04   1.301845959916848e+04   3.105527475247244e+02  -1.706163934884797e+00  -2.946944778085048e+00   1.491822775216141e-02
2017-01-01T03:17:50.000  -3.558074424810954e+04   1.298898538013334e+04   3.107018159868968e+02  -1.703554293338304e+00  -2.947898703511755e+00   1.489546518246869e-02
2017-01-01T03:18:00.000  -3.559776674253927e+04   1.295950163461793e+04   3.108506568231682e+02  -1.700944620642637e+00  -2.948850022035892e+00   1.487270231225080e-02
2017-01-01T03:18:10.000  -3.561476314042564e+04   1.293000838837673e+04   3.109992700322018e+02  -1.698334919484418e+00  -2.949798735121906e+00   1.484993916494880e-02
2017-01-01T03:18:20.000  -3.563173344132065e+04   1.290050566776424e+04   3.111476556097979e+02  -1.695725192600244e+00  -2.950744844216857e+00   1.482717576443972e-02
2017-01-01T03:18:30.000  -3.564867764484674e+04   1.287099349904543e+04   3.112958135523722e+02  -1.693115442715682e+00  -2.951688350772645e+00   1.480441213450432e-02
2017-01-01T03:18:40.000  -3.566559575059374e+04   1.284147190857364e+04   3.114437438560552e+02  -1.690505672561012e+00  -2.952629256240231e+00   1.478164829896454e-02
2017-01-01T03:18:50.000  -3.568248775839200e+04   1.281194092232021e+04   3.115914465190790e+02  -1.687895884829558e+00  -2.953567562084943e+00   1.475888428131997e-02
2017-01-01T03:19:00.000  -3.569935366808640e+04   1.278240056626241e+04   3.117389215398035e+02  -1.685286082212081e+00  -2.954503269773785e+00   1.473612010504783e-02
2017-01-01T03:19:10.000  -3.571619347958858e+04   1.275285086629399e+04   3.118861689171706e+02  -1.682676267388846e+00  -2.955436380778351e+00   1.471335579353381e-02
2017-01-01T03:19:20.000  -3.573300719285510e+04   1.272329184825925e+04   3.120331886505155e+02  -1.680066443032699e+00  -2.956366896573533e+00   1.469059137009890e-02
2017-01-01T03:19:30.000  -3.574979480787949e+04   1.269372353797015e+04   3.121799807394953e+02  -1.677456611810525e+00  -2.957294818637135e+00   1.466782685801209e-02
2017-01-01T03:19:40.000  -3.576655632467206e+04   1.266414596124160e+04   3.123265451839142e+02  -1.674846776386376e+00  -2.958220148448750e+00   1.464506228051768e-02
2017-01-01T03:19:50.000  -3.578329174324903e+04   1.263455914390749e+04   3.124728819836267e+02  -1.672236939422932e+00  -2.959142887489084e+00   1.462229766084801e-02
2017-01-01T03:20:00.000  -3.580000106361455e+04   1.260496311185613e+04   3.126189911383819e+02  -1.669627103584573e+00  -2.960063037239034e+00   1.459953302225025e-02
2017-01-01T03:20:10.000  -3.581668428581063e+04   1.257535789094007e+04   3.127648726482598e+02  -1.667017271529453e+00  -2.960980599182406e+00   1.457676838791728e-02
2017-01-01T03:20:20.000  -3.583334140970001e+04   1.254574350736705e+04   3.129105265117705e+02  -1.664407445943890e+00  -2.961895574794062e+00   1.455400378128763e-02
2017-01-01T03:20:30.000  -3.584997243522975e+04   1.251611998722639e+04   3.130559527281632e+02  -1.661797629500692e+00  -2.962807965554318e+00   1.453123922568206e-02
2017-01-01T03:20:40.000  -3.586657736233288e+04   1.248648735666498e+04   3.132011512965623e+02  -1.659187824874661e+00  -2.963717772943540e+00   1.450847474443866e-02
2017-01-01T03:20:50.000  -3.588315619131069e+04   1.245684564120571e+04   3.133461222193125e+02  -1.656578034682554e+00  -2.964624998463098e+00   1.448571036038926e-02
2017-01-01T03:21:00.000  -3.589970892245093e+04   1.242719486642722e+04   3.134908654986399e+02  -1.653968261542973e+00  -2.965529643614424e+00   1.446294609638177e-02
2017-01-01T03:21:10.000  -3.591623555611500e+04   1.239753505780995e+04   3.136353811374132e+02  -1.651358508062790e+00  -2.966431709903793e+00   1.444018197516183e-02
2017-01-01T03:21:20.000  -3.593273609251997e+04   1.236786624111910e+04   3.137796691372395e+02  -1.648748776870956e+00  -2.967331198830275e+00   1.441741801966763e-02
2017-01-01T03:21:30.000  -3.594921053190136e+04   1.233818844212059e+04   3.139237294998861e+02  -1.646139070593403e+00  -2.968228111894757e+00   1.439465425281107e-02
